start=new Date('2022-09-23T00:00:00.000Z').valueOf();
sats=[{"OBJECT_NAME":"STARLINK-4124","TLE_LINE2":"2 53245  53.2135 117.4188 0001754  66.6033 346.0544 15.08817448  1307","MEAN_MOTION_DDOT":"0.0000000000000","INCLINATION":"53.2135","REV_AT_EPOCH":"130","ELEMENT_SET_NO":"999","OBJECT_TYPE":"PAYLOAD","MEAN_MOTION":"15.08817448","TIME_SYSTEM":"UTC","CLASSIFICATION_TYPE":"U","RCS_SIZE":"LARGE","LAUNCH_DATE":"2022-07-24","MEAN_ELEMENT_THEORY":"SGP4","SEMIMAJOR_AXIS":"6917.949","EPHEMERIS_TYPE":"0","TLE_LINE1":"1 53245U 22086D   22265.91667824  .00002245  00000-0  15923-3 0  9993","SITE":"AFETR","MEAN_ANOMALY":"346.0544","CENTER_NAME":"EARTH","DECAY_DATE":null,"PERIOD":"95.439","RA_OF_ASC_NODE":"117.4188","OBJECT_ID":"2022-086D","MEAN_MOTION_DOT":"0.00002245","APOAPSIS":"541.028","REF_FRAME":"TEME","GP_ID":"213262507","EPOCH":"2022-09-22T22:00:00.999936","ECCENTRICITY":"0.00017540","NORAD_CAT_ID":"53245","FILE":"3580594","ARG_OF_PERICENTER":"66.6033","COUNTRY_CODE":"US","PERIAPSIS":"538.601","BSTAR":"0.00015923000000"},{"APOAPSIS":"541.104","REF_FRAME":"TEME","RA_OF_ASC_NODE":"117.4172","OBJECT_ID":"2022-086E","MEAN_MOTION_DOT":"0.00001640","MEAN_ANOMALY":"19.1907","CENTER_NAME":"EARTH","DECAY_DATE":null,"PERIOD":"95.438","TLE_LINE1":"1 53246U 22086E   22265.91667824  .00001640  00000-0  12115-3 0  9992","SITE":"AFETR","BSTAR":"0.00012115000000","ARG_OF_PERICENTER":"53.4660","COUNTRY_CODE":"US","PERIAPSIS":"538.403","ECCENTRICITY":"0.00019520","NORAD_CAT_ID":"53246","FILE":"3580594","GP_ID":"213262758","EPOCH":"2022-09-22T22:00:00.999936","MEAN_MOTION":"15.08837271","TIME_SYSTEM":"UTC","REV_AT_EPOCH":"130","INCLINATION":"53.2129","ELEMENT_SET_NO":"999","OBJECT_TYPE":"PAYLOAD","MEAN_MOTION_DDOT":"0.0000000000000","TLE_LINE2":"2 53246  53.2129 117.4172 0001952  53.4660  19.1907 15.08837271  1301","OBJECT_NAME":"STARLINK-4131","MEAN_ELEMENT_THEORY":"SGP4","SEMIMAJOR_AXIS":"6917.889","EPHEMERIS_TYPE":"0","CLASSIFICATION_TYPE":"U","RCS_SIZE":"LARGE","LAUNCH_DATE":"2022-07-24"},{"RCS_SIZE":"LARGE","CLASSIFICATION_TYPE":"U","LAUNCH_DATE":"2022-07-24","EPHEMERIS_TYPE":"0","MEAN_ELEMENT_THEORY":"SGP4","SEMIMAJOR_AXIS":"6917.946","MEAN_MOTION_DDOT":"0.0000000000000","TLE_LINE2":"2 53247  53.2177 112.4224 0001617  68.6301 346.2208 15.08818589  1305","OBJECT_NAME":"STARLINK-4061","ELEMENT_SET_NO":"999","OBJECT_TYPE":"PAYLOAD","INCLINATION":"53.2177","REV_AT_EPOCH":"130","MEAN_MOTION":"15.08818589","TIME_SYSTEM":"UTC","GP_ID":"213263080","EPOCH":"2022-09-22T22:00:00.999936","FILE":"3580594","ECCENTRICITY":"0.00016170","NORAD_CAT_ID":"53247","COUNTRY_CODE":"US","PERIAPSIS":"538.692","ARG_OF_PERICENTER":"68.6301","BSTAR":"0.00062272000000","SITE":"AFETR","TLE_LINE1":"1 53247U 22086F   22265.91667824  .00009631  00000-0  62272-3 0  9990","MEAN_ANOMALY":"346.2208","CENTER_NAME":"EARTH","DECAY_DATE":null,"PERIOD":"95.439","MEAN_MOTION_DOT":"0.00009631","OBJECT_ID":"2022-086F","RA_OF_ASC_NODE":"112.4224","APOAPSIS":"540.929","REF_FRAME":"TEME"},{"EPHEMERIS_TYPE":"0","MEAN_ELEMENT_THEORY":"SGP4","SEMIMAJOR_AXIS":"6917.852","CLASSIFICATION_TYPE":"U","RCS_SIZE":"LARGE","LAUNCH_DATE":"2022-07-24","MEAN_MOTION":"15.08849250","TIME_SYSTEM":"UTC","ELEMENT_SET_NO":"999","OBJECT_TYPE":"PAYLOAD","REV_AT_EPOCH":"130","INCLINATION":"53.2186","MEAN_MOTION_DDOT":"0.0000000000000","TLE_LINE2":"2 53248  53.2186 112.4214 0001521  77.8182 357.0992 15.08849250  1307","OBJECT_NAME":"STARLINK-4135","BSTAR":"-0.00038131000000","COUNTRY_CODE":"US","PERIAPSIS":"538.665","ARG_OF_PERICENTER":"77.8182","FILE":"3580594","ECCENTRICITY":"0.00015210","NORAD_CAT_ID":"53248","GP_ID":"213262602","EPOCH":"2022-09-22T22:00:00.999936","APOAPSIS":"540.769","REF_FRAME":"TEME","OBJECT_ID":"2022-086G","MEAN_MOTION_DOT":"-0.00006353","RA_OF_ASC_NODE":"112.4214","CENTER_NAME":"EARTH","MEAN_ANOMALY":"357.0992","DECAY_DATE":null,"PERIOD":"95.437","SITE":"AFETR","TLE_LINE1":"1 53248U 22086G   22265.91667824 -.00006353  00000-0 -38131-3 0  9998"},{"EPHEMERIS_TYPE":"0","SEMIMAJOR_AXIS":"6861.734","MEAN_ELEMENT_THEORY":"SGP4","LAUNCH_DATE":"2022-07-24","CLASSIFICATION_TYPE":"U","RCS_SIZE":"LARGE","TIME_SYSTEM":"UTC","MEAN_MOTION":"15.27397145","TLE_LINE2":"2 53249  53.2171 108.0209 0001411  64.0747  31.3248 15.27397145  1308","MEAN_MOTION_DDOT":"0.0000000000000","OBJECT_NAME":"STARLINK-4128","OBJECT_TYPE":"PAYLOAD","ELEMENT_SET_NO":"999","INCLINATION":"53.2171","REV_AT_EPOCH":"130","PERIAPSIS":"482.630","COUNTRY_CODE":"US","ARG_OF_PERICENTER":"64.0747","BSTAR":"-0.04310000000000","EPOCH":"2022-09-22T22:00:00.999936","GP_ID":"213262915","FILE":"3580594","NORAD_CAT_ID":"53249","ECCENTRICITY":"0.00014110","OBJECT_ID":"2022-086H","MEAN_MOTION_DOT":"-0.01072945","RA_OF_ASC_NODE":"108.0209","REF_FRAME":"TEME","APOAPSIS":"484.567","SITE":"AFETR","TLE_LINE1":"1 53249U 22086H   22265.91667824 -.01072945  00000-0 -43100-1 0  9990","PERIOD":"94.278","DECAY_DATE":null,"CENTER_NAME":"EARTH","MEAN_ANOMALY":"31.3248"},{"TIME_SYSTEM":"UTC","MEAN_MOTION":"15.27118410","REV_AT_EPOCH":"130","INCLINATION":"53.2173","OBJECT_TYPE":"PAYLOAD","ELEMENT_SET_NO":"999","TLE_LINE2":"2 53250  53.2173 108.0145 0001454  59.8740  23.7375 15.27118410  1305","MEAN_MOTION_DDOT":"0.0000000000000","OBJECT_NAME":"STARLINK-4059","SEMIMAJOR_AXIS":"6862.569","MEAN_ELEMENT_THEORY":"SGP4","EPHEMERIS_TYPE":"0","LAUNCH_DATE":"2022-07-24","RCS_SIZE":"LARGE","CLASSIFICATION_TYPE":"U","REF_FRAME":"TEME","APOAPSIS":"485.431","RA_OF_ASC_NODE":"108.0145","OBJECT_ID":"2022-086J","MEAN_MOTION_DOT":"-0.01077906","PERIOD":"94.295","DECAY_DATE":null,"MEAN_ANOMALY":"23.7375","CENTER_NAME":"EARTH","TLE_LINE1":"1 53250U 22086J   22265.91667824 -.01077906  00000-0 -43688-1 0  9995","SITE":"AFETR","BSTAR":"-0.04368800000000","ARG_OF_PERICENTER":"59.8740","PERIAPSIS":"483.436","COUNTRY_CODE":"US","NORAD_CAT_ID":"53250","ECCENTRICITY":"0.00014540","FILE":"3580594","EPOCH":"2022-09-22T22:00:00.999936","GP_ID":"213262351"},{"RCS_SIZE":"LARGE","CLASSIFICATION_TYPE":"U","LAUNCH_DATE":"2022-07-24","MEAN_ELEMENT_THEORY":"SGP4","SEMIMAJOR_AXIS":"6859.964","EPHEMERIS_TYPE":"0","INCLINATION":"53.2174","REV_AT_EPOCH":"130","ELEMENT_SET_NO":"999","OBJECT_TYPE":"PAYLOAD","TLE_LINE2":"2 53251  53.2174 108.0354 0001401  69.9985  47.8100 15.27988329  1301","MEAN_MOTION_DDOT":"0.0000000000000","OBJECT_NAME":"STARLINK-4129","MEAN_MOTION":"15.27988329","TIME_SYSTEM":"UTC","ECCENTRICITY":"0.00014010","NORAD_CAT_ID":"53251","FILE":"3580594","GP_ID":"213263283","EPOCH":"2022-09-22T22:00:00.999936","BSTAR":"-0.04236200000000","ARG_OF_PERICENTER":"69.9985","COUNTRY_CODE":"US","PERIAPSIS":"480.868","CENTER_NAME":"EARTH","MEAN_ANOMALY":"47.8100","PERIOD":"94.242","DECAY_DATE":null,"TLE_LINE1":"1 53251U 22086K   22265.91667824 -.01073798  00000-0 -42362-1 0  9999","SITE":"AFETR","APOAPSIS":"482.790","REF_FRAME":"TEME","RA_OF_ASC_NODE":"108.0354","MEAN_MOTION_DOT":"-0.01073798","OBJECT_ID":"2022-086K"},{"LAUNCH_DATE":"2022-07-24","RCS_SIZE":"LARGE","CLASSIFICATION_TYPE":"U","EPHEMERIS_TYPE":"0","SEMIMAJOR_AXIS":"6862.167","MEAN_ELEMENT_THEORY":"SGP4","OBJECT_TYPE":"PAYLOAD","ELEMENT_SET_NO":"999","INCLINATION":"53.2172","REV_AT_EPOCH":"130","TLE_LINE2":"2 53252  53.2172 108.0194 0001363  70.0231  22.1803 15.27252425  1303","MEAN_MOTION_DDOT":"0.0000000000000","OBJECT_NAME":"STARLINK-4132","TIME_SYSTEM":"UTC","MEAN_MOTION":"15.27252425","FILE":"3580594","NORAD_CAT_ID":"53252","ECCENTRICITY":"0.00013630","EPOCH":"2022-09-22T22:00:00.999936","GP_ID":"213262194","BSTAR":"-0.03865300000000","PERIAPSIS":"483.097","COUNTRY_CODE":"US","ARG_OF_PERICENTER":"70.0231","DECAY_DATE":null,"PERIOD":"94.287","MEAN_ANOMALY":"22.1803","CENTER_NAME":"EARTH","SITE":"AFETR","TLE_LINE1":"1 53252U 22086L   22265.91667824 -.00966529  00000-0 -38653-1 0  9990","REF_FRAME":"TEME","APOAPSIS":"484.967","MEAN_MOTION_DOT":"-0.00966529","OBJECT_ID":"2022-086L","RA_OF_ASC_NODE":"108.0194"},{"MEAN_MOTION_DDOT":"0.0000000000000","TLE_LINE2":"2 53253  53.2171 108.0423 0001549  61.1214  67.6825 15.28288769  1305","OBJECT_NAME":"STARLINK-4133","OBJECT_TYPE":"PAYLOAD","ELEMENT_SET_NO":"999","INCLINATION":"53.2171","REV_AT_EPOCH":"130","TIME_SYSTEM":"UTC","MEAN_MOTION":"15.28288769","LAUNCH_DATE":"2022-07-24","RCS_SIZE":"MEDIUM","CLASSIFICATION_TYPE":"U","EPHEMERIS_TYPE":"0","SEMIMAJOR_AXIS":"6859.065","MEAN_ELEMENT_THEORY":"SGP4","SITE":"AFETR","TLE_LINE1":"1 53253U 22086M   22265.91667824 -.01080346  00000-0 -42250-1 0  9994","DECAY_DATE":null,"PERIOD":"94.223","MEAN_ANOMALY":"67.6825","CENTER_NAME":"EARTH","MEAN_MOTION_DOT":"-0.01080346","OBJECT_ID":"2022-086M","RA_OF_ASC_NODE":"108.0423","REF_FRAME":"TEME","APOAPSIS":"481.992","EPOCH":"2022-09-22T22:00:00.999936","GP_ID":"213262508","FILE":"3580594","NORAD_CAT_ID":"53253","ECCENTRICITY":"0.00015490","PERIAPSIS":"479.867","COUNTRY_CODE":"US","ARG_OF_PERICENTER":"61.1214","BSTAR":"-0.04225000000000"},{"SITE":"AFETR","TLE_LINE1":"1 53254U 22086N   22265.91667824 -.01076691  00000-0 -42870-1 0  9991","PERIOD":"94.260","DECAY_DATE":null,"CENTER_NAME":"EARTH","MEAN_ANOMALY":"46.3132","OBJECT_ID":"2022-086N","MEAN_MOTION_DOT":"-0.01076691","RA_OF_ASC_NODE":"108.0282","REF_FRAME":"TEME","APOAPSIS":"483.713","EPOCH":"2022-09-22T22:00:00.999936","GP_ID":"213262759","FILE":"3580594","NORAD_CAT_ID":"53254","ECCENTRICITY":"0.00014680","PERIAPSIS":"481.699","COUNTRY_CODE":"US","ARG_OF_PERICENTER":"60.3583","BSTAR":"-0.04287000000000","OBJECT_NAME":"STARLINK-4134","TLE_LINE2":"2 53254  53.2173 108.0282 0001468  60.3583  46.3132 15.27695238  1308","MEAN_MOTION_DDOT":"0.0000000000000","OBJECT_TYPE":"PAYLOAD","ELEMENT_SET_NO":"999","INCLINATION":"53.2173","REV_AT_EPOCH":"130","TIME_SYSTEM":"UTC","MEAN_MOTION":"15.27695238","LAUNCH_DATE":"2022-07-24","CLASSIFICATION_TYPE":"U","RCS_SIZE":"LARGE","EPHEMERIS_TYPE":"0","SEMIMAJOR_AXIS":"6860.841","MEAN_ELEMENT_THEORY":"SGP4"}];
